{
    "links": {
        "self": "http://www.neowsapp.com/rest/v1/neo/3648739?api_key=iIulBulltgU6a56xZRHN4H3l9WmuAYTsLGpBGhQ2"
    },
    "id": "3648739",
    "neo_reference_id": "3648739",
    "name": "(2013 TK)",
    "designation": "2013 TK",
    "nasa_jpl_url": "http://ssd.jpl.nasa.gov/sbdb.cgi?sstr=3648739",
    "absolute_magnitude_h": 24.2,
    "estimated_diameter": {
        "kilometers": {
            "estimated_diameter_min": 0.0384197891,
            "estimated_diameter_max": 0.0859092601
        },
        "meters": {
            "estimated_diameter_min": 38.4197891064,
            "estimated_diameter_max": 85.9092601232
        },
        "miles": {
            "estimated_diameter_min": 0.0238729428,
            "estimated_diameter_max": 0.0533815229
        },
        "feet": {
            "estimated_diameter_min": 126.0491808919,
            "estimated_diameter_max": 281.8545369825
        }
    },
    "is_potentially_hazardous_asteroid": false,
    "close_approach_data": [
        {
            "close_approach_date": "1911-12-20",
            "close_approach_date_full": "1911-Dec-20 13:33",
            "epoch_date_close_approach": -1831372020000,
            "relative_velocity": {
                "kilometers_per_second": "16.4068757413",
                "kilometers_per_hour": "59064.7526687437",
                "miles_per_hour": "36700.5403457536"
            },
            "miss_distance": {
                "astronomical": "0.3566769693",
                "lunar": "138.7473410577",
                "kilometers": "53358114.885335391",
                "miles": "33155195.1629187558"
            },
            "orbiting_body": "Earth"
        },
        {
            "close_approach_date": "2009-12-10",
            "close_approach_date_full": "2009-Dec-10 08:47",
            "epoch_date_close_approach": 1260434820000,
            "relative_velocity": {
                "kilometers_per_second": "12.902670594",
                "kilometers_per_hour": "46449.6141385505",
                "miles_per_hour": "28861.9838518121"
            },
            "miss_distance": {
                "astronomical": "0.2719486992",
                "lunar": "105.7880439888",
                "kilometers": "40682946.149590704",
                "miles": "25279210.5247875552"
            },
            "orbiting_body": "Earth"
        },
        {
            "close_approach_date": "2013-10-17",
            "close_approach_date_full": "2013-Oct-17 03:26",
            "epoch_date_close_approach": 1381980360000,
            "relative_velocity": {
                "kilometers_per_second": "8.5865576942",
                "kilometers_per_hour": "30911.6076992944",
                "miles_per_hour": "19207.2709062643"
            },
            "miss_distance": {
                "astronomical": "0.1213150468",
                "lunar": "47.1915532052",
                "kilometers": "18148472.600230316",
                "miles": "11276937.9552217208"
            },
            "orbiting_body": "Earth"
        },
        {
            "close_approach_date": "2136-11-28",
            "close_approach_date_full": "2136-Nov-28 07:08",
            "epoch_date_close_approach": 5267142480000,
            "relative_velocity": {
                "kilometers_per_second": "10.153789912",
                "kilometers_per_hour": "36553.6436830668",
                "miles_per_hour": "22713.01265407"
            },
            "miss_distance": {
                "astronomical": "0.2700654674",
                "lunar": "105.0554668186",
                "kilometers": "40401218.683594438",
                "miles": "25104153.1949337244"
            },
            "orbiting_body": "Earth"
        },
        {
            "close_approach_date": "2140-11-28",
            "close_approach_date_full": "2140-Nov-28 10:54",
            "epoch_date_close_approach": 5393386440000,
            "relative_velocity": {
                "kilometers_per_second": "10.3220246451",
                "kilometers_per_hour": "37159.288722464",
                "miles_per_hour": "23089.3369286888"
            },
            "miss_distance": {
                "astronomical": "0.2793371485",
                "lunar": "108.6621507665",
                "kilometers": "41788242.427473695",
                "miles": "25966009.784559191"
            },
            "orbiting_body": "Earth"
        }
    ],
    "orbital_data": {
        "orbit_id": "14",
        "orbit_determination_date": "2017-04-06 08:44:26",
        "first_observation_date": "2013-10-01",
        "last_observation_date": "2013-11-26",
        "data_arc_in_days": 56,
        "observations_used": 40,
        "orbit_uncertainty": "7",
        "minimum_orbit_intersection": ".101134",
        "jupiter_tisserand_invariant": "3.215",
        "epoch_osculation": "2459000.5",
        "eccentricity": ".5739637249904462",
        "semi_major_axis": "2.494572307096071",
        "inclination": "5.199375321721074",
        "ascending_node_longitude": "171.5075024146619",
        "orbital_period": "1439.105298238057",
        "perihelion_distance": "1.062778293457199",
        "perihelion_argument": "235.378027388773",
        "aphelion_distance": "3.926366320734943",
        "perihelion_time": "2459474.107911279569",
        "mean_anomaly": "241.5244108479122",
        "mean_motion": ".2501554267368479",
        "equinox": "J2000",
        "orbit_class": {
            "orbit_class_type": "AMO",
            "orbit_class_description": "Near-Earth asteroid orbits similar to that of 1221 Amor",
            "orbit_class_range": "1.017 AU < q (perihelion) < 1.3 AU"
        }
    },
    "is_sentry_object": false
}